GLOBALSTAR M045 [-]     
1 25676U 99019A   23270.39361329 -.00000061  00000+0  28851-3 0  9998
2 25676  51.9968 297.3979 0000852  56.6260 316.8141 12.27015918116202
GLOBALSTAR M019 [-]     
1 25677U 99019B   23270.56076694 -.00000137  00000+0 -49029-3 0  9991
2 25677  51.9902  23.0675 0001582 121.4503 251.8533 12.13842743108809
GLOBALSTAR M044 [-]     
1 25678U 99019C   23270.45473472 -.00000074  00000+0  13707-3 0  9998
2 25678  51.9948 256.0698 0006227 268.7412 260.4353 11.90222712 96453
GLOBALSTAR M042 [-]     
1 25679U 99019D   23270.50742288 -.00000105  00000+0 -11730-3 0  9999
2 25679  52.0039  25.6748 0003720  89.4477 351.0323 12.22046915108393
GLOBALSTAR M025 [-]     
1 25770U 99031A   23270.49298476 -.00000060  00000+0  22903-3 0  9991
2 25770  51.9801 175.6747 0001028 134.6542  36.2927 11.22545381411108
GLOBALSTAR M049 [-]     
1 25771U 99031B   23270.17265456 -.00000016  00000+0  17086-2 0  9995
2 25771  51.9860 179.5677 0003358  37.4250 322.6779 11.12101472 47440
GLOBALSTAR M047 [-]     
1 25772U 99031C   23270.30739180 -.00000063  00000+0  17415-3 0  9990
2 25772  51.9810 236.3116 0016122 264.3773  95.5194 11.31915637399893
GLOBALSTAR M052 [-]     
1 25773U 99031D   23270.37914850 -.00000029  00000+0  12517-2 0  9996
2 25773  51.9863 296.6165 0002393 208.6072 252.2778 11.15045612408365
